2026-132G               
1 69676U 26132G   26189.43473603  .00006559  00000+0  42983-3 0  9997
2 69676  97.6875 253.0023 0024592 224.5551 135.3700 15.07805957  3974
STARLINK-38005          
1 69677U 26145A   26192.04742003  .00137012  00000+0  90188-3 0  9995
2 69677  97.2843  38.6788 0001892  49.4818 310.6612 15.75264022  2526
STARLINK-38009          
1 69678U 26145B   26192.04565777  .00219584  00000+0  14282-2 0  9992
2 69678  97.2845  38.6818 0002087  53.3278 306.8178 15.75308356  2527
STARLINK-37998          
1 69679U 26145C   26192.16668980 -.00161195  00000+0 -10975-2 0  9997
2 69679  97.2852  38.8158 0001424  89.7984 250.2254 15.75249356  3786
STARLINK-37994          
1 69680U 26145D   26192.16668980 -.00108703  00000+0 -73604-3 0  9994
2 69680  97.2852  38.8115 0001517  91.9200 240.1081 15.75226244  3787
STARLINK-37992          
1 69681U 26145E   26192.16668980 -.00141239  00000+0 -95967-3 0  9992
2 69681  97.2852  38.8125 0001517  98.3637 235.6613 15.75239787  3780
STARLINK-37997          
1 69682U 26145F   26192.16668980 -.00147701  00000+0 -10043-2 0  9994
2 69682  97.2852  38.8148 0001476  95.4590 242.5675 15.75242178  3789
STARLINK-37990          
1 69683U 26145G   26191.98036395  .00118309  00000+0  78230-3 0  9996
2 69683  97.2850  38.6163 0001987  75.2681 284.8804 15.75213602  2510
STARLINK-37951          
1 69684U 26145H   26192.16988522  .00176432  00000+0  11569-2 0  9998
2 69684  97.2838  38.8184 0001294  93.6001 266.5413 15.75240813  2543
STARLINK-37957          
1 69685U 26145J   26191.40649592  .00140403  00000+0  92514-3 0  9995
2 69685  97.2850  38.0195 0001629  51.3952 308.7458 15.75231132  2429
STARLINK-37968          
1 69686U 26145K   26191.40049627  .00141847  00000+0  93472-3 0  9996
2 69686  97.2849  38.0286 0001370  81.5840 278.5581 15.75225614  2422
STARLINK-37977          
1 69687U 26145L   26192.22565074  .00135854  00000+0  89621-3 0  9999
2 69687  97.2850  38.8970 0001983  75.4460 284.7025 15.75216855  2556
STARLINK-37908          
1 69688U 26145M   26192.03295047  .00144001  00000+0  94702-3 0  9999
2 69688  97.2848  38.7008 0001587  59.8432 300.2990 15.75265363  2520
STARLINK-37979          
1 69689U 26145N   26192.03259242  .00160068  00000+0  10532-2 0  9996
2 69689  97.2819  38.6992 0000489 139.6549 220.4752 15.75208127  2520
STARLINK-37940          
1 69690U 26145P   26192.03154134  .00137150  00000+0  90317-3 0  9998
2 69690  97.2834  38.7030 0001874  69.7336 290.4130 15.75253946  2525
STARLINK-37961          
1 69691U 26145Q   26191.39308618  .00138203  00000+0  91113-3 0  9990
2 69691  97.2856  38.0386 0001505  71.7040 288.4389 15.75225201  2428
STARLINK-37787          
1 69692U 26145R   26192.02624566  .00187255  00000+0  12269-2 0  9990
2 69692  97.2841  38.7090 0001357  87.1814 272.9607 15.75228323  2527
STARLINK-37962          
1 69693U 26145S   26192.02447888  .00124363  00000+0  82079-3 0  9999
2 69693  97.2850  38.7100 0001055  95.3385 264.8001 15.75240302  2528
STARLINK-37953          
1 69694U 26145T   26191.39202648  .00134426  00000+0  88658-3 0  9992
2 69694  97.2854  38.0400 0001499  67.4173 292.7251 15.75227047  2423
STARLINK-37926          
1 69695U 26145U   26191.33336806 -.00129423  00000+0 -87825-3 0  9999
2 69695  97.2855  37.9823 0001517  98.6218 293.1084 15.75235867  3642
STARLINK-37959          
1 69696U 26145V   26192.21612096  .00144935  00000+0  95525-3 0  9995
2 69696  97.2850  38.9091 0001695  83.8858 276.2601 15.75211955  2557
STARLINK-37976          
1 69697U 26145W   26192.02271248  .00165760  00000+0  10872-2 0  9995
2 69697  97.2845  38.7131 0000453 146.2389 213.8905 15.75264561  2521
STARLINK-37912          
1 69698U 26145X   26192.02165095  .00154890  00000+0  10171-2 0  9992
2 69698  97.2850  38.7150 0000418 215.6238 144.4999 15.75269579  2520
STARLINK-37974          
1 69699U 26145Y   26192.02094926  .00123839  00000+0  81627-3 0  9991
2 69699  97.2847  38.7160 0001121  90.0517 270.0877 15.75271778  2520
STARLINK-37955          
1 69700U 26145Z   26192.14553255  .00119185  00000+0  78747-3 0  9990
2 69700  97.2851  38.8529 0001339  67.5280 292.6127 15.75230042  2544
STRIX-8                 
1 69701U 26146A   26191.90351588  .00002680  00000+0  20195-3 0  9995
2 69701  41.9901  36.8671 0007849 353.8302   6.2427 15.04411165  2137
ELECTRON R/B            
1 69702U 26146B   26191.72439971  .00400735  55909-4  10696-2 0  9999
2 69702  42.0745  30.1306 0181348 348.7903  10.8938 15.71553502  2207
ELECTRON KICK STAGE R/B 
1 69703U 26146C   26191.76591108  .00002443  00000+0  18280-3 0  9994
2 69703  41.9885  37.5627 0009637 354.1283   5.9430 15.04921200  2112
STARLINK-38055          
1 69704U 26147A   26192.05464450  .00187815  00000+0  95625-3 0  9993
2 69704  97.2848 228.2012 0001483 112.5635 247.5790 15.80908622  3202
STARLINK-37898          
1 69705U 26147B   26192.05382191  .00199258  00000+0  10134-2 0  9990
2 69705  97.2847 228.2025 0001510 117.9907 242.1514 15.80902776  3207
