OBJECT_NAME,OBJECT_ID,EPOCH,MEAN_MOTION,ECCENTRICITY,INCLINATION,RA_OF_ASC_NODE,ARG_OF_PERICENTER,MEAN_ANOMALY,EPHEMERIS_TYPE,CLASSIFICATION_TYPE,NORAD_CAT_ID,ELEMENT_SET_NO,REV_AT_EPOCH,BSTAR,MEAN_MOTION_DOT,MEAN_MOTION_DDOT
2026-132G,2026-132G,2026-07-08T10:26:01.192992,15.07805957,.0024592,97.6875,253.0023,224.5551,135.3700,0,U,69676,999,397,.42983E-3,.6559E-4,0
STARLINK-38005,2026-145A,2026-07-11T01:08:17.090592,15.75264022,.0001892,97.2843,38.6788,49.4818,310.6612,0,U,69677,999,252,.90188E-3,.137012E-2,0
STARLINK-38009,2026-145B,2026-07-11T01:05:44.831328,15.75308356,.0002087,97.2845,38.6818,53.3278,306.8178,0,U,69678,999,252,.14282E-2,.219584E-2,0
STARLINK-37998,2026-145C,2026-07-11T04:00:01.998720,15.75249356,.0001424,97.2852,38.8158,89.7984,250.2254,0,U,69679,999,378,-.10975E-2,-.161195E-2,0
STARLINK-37994,2026-145D,2026-07-11T04:00:01.998720,15.75226244,.0001517,97.2852,38.8115,91.9200,240.1081,0,U,69680,999,378,-.73604E-3,-.108703E-2,0
STARLINK-37992,2026-145E,2026-07-11T04:00:01.998720,15.75239787,.0001517,97.2852,38.8125,98.3637,235.6613,0,U,69681,999,378,-.95967E-3,-.141239E-2,0
STARLINK-37997,2026-145F,2026-07-11T04:00:01.998720,15.75242178,.0001476,97.2852,38.8148,95.4590,242.5675,0,U,69682,999,378,-.10043E-2,-.147701E-2,0
STARLINK-37990,2026-145G,2026-07-10T23:31:43.445280,15.75213602,.0001987,97.2850,38.6163,75.2681,284.8804,0,U,69683,999,251,.7823E-3,.118309E-2,0
STARLINK-37951,2026-145H,2026-07-11T04:04:38.083008,15.75240813,.0001294,97.2838,38.8184,93.6001,266.5413,0,U,69684,999,254,.11569E-2,.176432E-2,0
STARLINK-37957,2026-145J,2026-07-10T09:45:21.247488,15.75231132,.00016291,97.2850,38.0195,51.3952,308.7458,0,U,69685,999,242,.9251383E-3,.140403E-2,0
STARLINK-37968,2026-145K,2026-07-10T09:36:42.877728,15.75225614,.00013707,97.2849,38.0286,81.5840,278.5581,0,U,69686,999,242,.93471992E-3,.141847E-2,0
STARLINK-37977,2026-145L,2026-07-11T05:24:56.223936,15.75216855,.0001983,97.2850,38.8970,75.4460,284.7025,0,U,69687,999,255,.89621E-3,.135854E-2,0
STARLINK-37908,2026-145M,2026-07-11T00:47:26.920608,15.75265363,.0001587,97.2848,38.7008,59.8432,300.2990,0,U,69688,999,252,.94702E-3,.144001E-2,0
STARLINK-37979,2026-145N,2026-07-11T00:46:55.985088,15.75208127,.0000489,97.2819,38.6992,139.6549,220.4752,0,U,69689,999,252,.10532E-2,.160068E-2,0
STARLINK-37940,2026-145P,2026-07-11T00:45:25.171776,15.75253946,.0001874,97.2834,38.7030,69.7336,290.4130,0,U,69690,999,252,.90317E-3,.13715E-2,0
STARLINK-37961,2026-145Q,2026-07-10T09:26:02.645952,15.75225201,.00015051,97.2856,38.0386,71.7040,288.4389,0,U,69691,999,242,.91113156E-3,.138203E-2,0
STARLINK-37787,2026-145R,2026-07-11T00:37:47.625024,15.75228323,.0001357,97.2841,38.7090,87.1814,272.9607,0,U,69692,999,252,.12269E-2,.187255E-2,0
STARLINK-37962,2026-145S,2026-07-11T00:35:14.975232,15.75240302,.0001055,97.2850,38.7100,95.3385,264.8001,0,U,69693,999,252,.82079E-3,.124363E-2,0
STARLINK-37953,2026-145T,2026-07-10T09:24:31.087872,15.75227047,.00014998,97.2854,38.0400,67.4173,292.7251,0,U,69694,999,242,.8865752E-3,.134426E-2,0
STARLINK-37926,2026-145U,2026-07-10T08:00:03.000384,15.75235867,.0001517,97.2855,37.9823,98.6218,293.1084,0,U,69695,999,364,-.87824618E-3,-.129423E-2,0
STARLINK-37959,2026-145V,2026-07-11T05:11:12.850944,15.75211955,.0001695,97.2850,38.9091,83.8858,276.2601,0,U,69696,999,255,.95525E-3,.144935E-2,0
STARLINK-37976,2026-145W,2026-07-11T00:32:42.358272,15.75264561,.0000453,97.2845,38.7131,146.2389,213.8905,0,U,69697,999,252,.10872E-2,.16576E-2,0
STARLINK-37912,2026-145X,2026-07-11T00:31:10.642080,15.75269579,.0000418,97.2850,38.7150,215.6238,144.4999,0,U,69698,999,252,.10171E-2,.15489E-2,0
STARLINK-37974,2026-145Y,2026-07-11T00:30:10.016064,15.75271778,.0001121,97.2847,38.7160,90.0517,270.0877,0,U,69699,999,252,.81627E-3,.123839E-2,0
STARLINK-37955,2026-145Z,2026-07-11T03:29:34.012320,15.75230042,.0001339,97.2851,38.8529,67.5280,292.6127,0,U,69700,999,254,.78747E-3,.119185E-2,0
STRIX-8,2026-146A,2026-07-10T21:41:03.772032,15.04411165,.0007849,41.9901,36.8671,353.8302,6.2427,0,U,69701,999,213,.20195E-3,.268E-4,0
ELECTRON R/B,2026-146B,2026-07-10T17:23:08.134944,15.71553502,.0181348,42.0745,30.1306,348.7903,10.8938,0,U,69702,999,220,.10696E-2,.400735E-2,.55909E-4
ELECTRON KICK STAGE R/B,2026-146C,2026-07-10T18:22:54.717312,15.04921200,.0009637,41.9885,37.5627,354.1283,5.9430,0,U,69703,999,211,.1828E-3,.2443E-4,0
STARLINK-38055,2026-147A,2026-07-11T01:18:41.284800,15.80908622,.0001483,97.2848,228.2012,112.5635,247.5790,0,U,69704,999,320,.95625E-3,.187815E-2,0
STARLINK-37898,2026-147B,2026-07-11T01:17:30.213024,15.80902776,.000151,97.2847,228.2025,117.9907,242.1514,0,U,69705,999,320,.10134E-2,.199258E-2,0
